CELESTIS-17 & SHERPA-FX1
1 47486U 21006CB  26068.64311433  .00007207  00000+0  24301-3 0  9993
2 47486  97.2397 112.1052 0006630 178.1385 181.9882 15.30994801284065
STARLINK-36410          
1 67337U 26003D   26068.45570974  .00036893  00000+0  13429-2 0  9999
2 67337  42.9974 228.7734 0000959 278.7996  81.2747 15.27594916  8788
